[{"OBJECT_NAME":"STARLINK-34079","OBJECT_ID":"2025-102S","EPOCH":"2025-12-04T11:23:24.073152","MEAN_MOTION":14.98355855,"ECCENTRICITY":0.0003253,"INCLINATION":70.0006,"RA_OF_ASC_NODE":354.3731,"ARG_OF_PERICENTER":275.8961,"MEAN_ANOMALY":84.1827,"EPHEMERIS_TYPE":0,"CLASSIFICATION_TYPE":"U","NORAD_CAT_ID":64038,"ELEMENT_SET_NO":999,"REV_AT_EPOCH":3179,"BSTAR":0.00087095,"MEAN_MOTION_DOT":0.00010321,"MEAN_MOTION_DDOT":0},{"OBJECT_NAME":"STARLINK-34089","OBJECT_ID":"2025-102T","EPOCH":"2025-12-04T11:11:40.704576","MEAN_MOTION":14.98340821,"ECCENTRICITY":0.0003105,"INCLINATION":70.0008,"RA_OF_ASC_NODE":354.7463,"ARG_OF_PERICENTER":269.0484,"MEAN_ANOMALY":91.0319,"EPHEMERIS_TYPE":0,"CLASSIFICATION_TYPE":"U","NORAD_CAT_ID":64039,"ELEMENT_SET_NO":999,"REV_AT_EPOCH":3168,"BSTAR":0.00064206,"MEAN_MOTION_DOT":7.578e-5,"MEAN_MOTION_DDOT":0},{"OBJECT_NAME":"STARLINK-34117","OBJECT_ID":"2025-102U","EPOCH":"2025-12-04T10:53:38.369184","MEAN_MOTION":14.98352095,"ECCENTRICITY":0.0003261,"INCLINATION":70.001,"RA_OF_ASC_NODE":354.7004,"ARG_OF_PERICENTER":270.5711,"MEAN_ANOMALY":89.5074,"EPHEMERIS_TYPE":0,"CLASSIFICATION_TYPE":"U","NORAD_CAT_ID":64040,"ELEMENT_SET_NO":999,"REV_AT_EPOCH":3162,"BSTAR":0.00094999,"MEAN_MOTION_DOT":0.00011267,"MEAN_MOTION_DDOT":0},{"OBJECT_NAME":"STARLINK-34111","OBJECT_ID":"2025-102V","EPOCH":"2025-12-04T07:23:21.357312","MEAN_MOTION":14.98352304,"ECCENTRICITY":0.0002919,"INCLINATION":70.0007,"RA_OF_ASC_NODE":354.9929,"ARG_OF_PERICENTER":276.1356,"MEAN_ANOMALY":83.947,"EPHEMERIS_TYPE":0,"CLASSIFICATION_TYPE":"U","NORAD_CAT_ID":64041,"ELEMENT_SET_NO":999,"REV_AT_EPOCH":3144,"BSTAR":0.0011017,"MEAN_MOTION_DOT":0.00013085,"MEAN_MOTION_DDOT":0},{"OBJECT_NAME":"STARLINK-34049","OBJECT_ID":"2025-102W","EPOCH":"2025-12-04T11:05:24.735840","MEAN_MOTION":14.98348814,"ECCENTRICITY":0.0003102,"INCLINATION":70.0008,"RA_OF_ASC_NODE":354.7345,"ARG_OF_PERICENTER":271.1156,"MEAN_ANOMALY":88.9648,"EPHEMERIS_TYPE":0,"CLASSIFICATION_TYPE":"U","NORAD_CAT_ID":64042,"ELEMENT_SET_NO":999,"REV_AT_EPOCH":3168,"BSTAR":0.00072287,"MEAN_MOTION_DOT":8.547e-5,"MEAN_MOTION_DDOT":0},{"OBJECT_NAME":"STARLINK-34096","OBJECT_ID":"2025-102X","EPOCH":"2025-12-04T10:41:22.685280","MEAN_MOTION":14.98319194,"ECCENTRICITY":0.0003122,"INCLINATION":70.0018,"RA_OF_ASC_NODE":354.6754,"ARG_OF_PERICENTER":271.0608,"MEAN_ANOMALY":89.0193,"EPHEMERIS_TYPE":0,"CLASSIFICATION_TYPE":"U","NORAD_CAT_ID":64043,"ELEMENT_SET_NO":999,"REV_AT_EPOCH":3157,"BSTAR":3.6787e-5,"MEAN_MOTION_DOT":3.46e-6,"MEAN_MOTION_DDOT":0},{"OBJECT_NAME":"STARLINK-34081","OBJECT_ID":"2025-102Y","EPOCH":"2025-12-04T10:53:25.257120","MEAN_MOTION":14.9834596,"ECCENTRICITY":0.0003203,"INCLINATION":70.0009,"RA_OF_ASC_NODE":354.7048,"ARG_OF_PERICENTER":267.754,"MEAN_ANOMALY":92.3252,"EPHEMERIS_TYPE":0,"CLASSIFICATION_TYPE":"U","NORAD_CAT_ID":64044,"ELEMENT_SET_NO":999,"REV_AT_EPOCH":3162,"BSTAR":0.0017651,"MEAN_MOTION_DOT":0.0002104,"MEAN_MOTION_DDOT":0},{"OBJECT_NAME":"STARLINK-34033","OBJECT_ID":"2025-102Z","EPOCH":"2025-12-04T10:17:19.140000","MEAN_MOTION":14.9833228,"ECCENTRICITY":0.0002792,"INCLINATION":70.0019,"RA_OF_ASC_NODE":354.6159,"ARG_OF_PERICENTER":269.8251,"MEAN_ANOMALY":90.2588,"EPHEMERIS_TYPE":0,"CLASSIFICATION_TYPE":"U","NORAD_CAT_ID":64045,"ELEMENT_SET_NO":999,"REV_AT_EPOCH":3161,"BSTAR":0.00062665,"MEAN_MOTION_DOT":7.392e-5,"MEAN_MOTION_DDOT":0},{"OBJECT_NAME":"STARLINK-33952","OBJECT_ID":"2025-102AA","EPOCH":"2025-12-04T11:41:26.056032","MEAN_MOTION":14.98443371,"ECCENTRICITY":0.0002647,"INCLINATION":70.0021,"RA_OF_ASC_NODE":354.4196,"ARG_OF_PERICENTER":279.6332,"MEAN_ANOMALY":80.4528,"EPHEMERIS_TYPE":0,"CLASSIFICATION_TYPE":"U","NORAD_CAT_ID":64046,"ELEMENT_SET_NO":999,"REV_AT_EPOCH":3169,"BSTAR":0.0055891,"MEAN_MOTION_DOT":0.00067437,"MEAN_MOTION_DDOT":0},{"OBJECT_NAME":"STARLINK-33961","OBJECT_ID":"2025-102AB","EPOCH":"2025-12-04T10:29:21.079392","MEAN_MOTION":14.98345629,"ECCENTRICITY":0.0002683,"INCLINATION":70.0025,"RA_OF_ASC_NODE":354.6457,"ARG_OF_PERICENTER":267.1198,"MEAN_ANOMALY":92.9654,"EPHEMERIS_TYPE":0,"CLASSIFICATION_TYPE":"U","NORAD_CAT_ID":64047,"ELEMENT_SET_NO":999,"REV_AT_EPOCH":3156,"BSTAR":0.00097347,"MEAN_MOTION_DOT":0.00011546,"MEAN_MOTION_DDOT":0},{"OBJECT_NAME":"STARLINK-11741 [DTC]","OBJECT_ID":"2025-107A","EPOCH":"2025-12-04T07:48:17.942688","MEAN_MOTION":15.70904008,"ECCENTRICITY":0.00012,"INCLINATION":42.9993,"RA_OF_ASC_NODE":313.6018,"ARG_OF_PERICENTER":280.5004,"MEAN_ANOMALY":79.5728,"EPHEMERIS_TYPE":0,"CLASSIFICATION_TYPE":"U","NORAD_CAT_ID":64064,"ELEMENT_SET_NO":999,"REV_AT_EPOCH":3229,"BSTAR":0.0011314,"MEAN_MOTION_DOT":0.0014773,"MEAN_MOTION_DDOT":0},{"OBJECT_NAME":"STARLINK-11709 [DTC]","OBJECT_ID":"2025-107B","EPOCH":"2025-12-04T14:55:31.954368","MEAN_MOTION":15.70992742,"ECCENTRICITY":9.07e-5,"INCLINATION":42.9994,"RA_OF_ASC_NODE":311.5144,"ARG_OF_PERICENTER":316.639,"MEAN_ANOMALY":43.4406,"EPHEMERIS_TYPE":0,"CLASSIFICATION_TYPE":"U","NORAD_CAT_ID":64065,"ELEMENT_SET_NO":999,"REV_AT_EPOCH":3234,"BSTAR":0.0040371,"MEAN_MOTION_DOT":0.00557471,"MEAN_MOTION_DDOT":0},{"OBJECT_NAME":"STARLINK-11737 [DTC]","OBJECT_ID":"2025-107C","EPOCH":"2025-12-04T06:54:46.464192","MEAN_MOTION":15.71004505,"ECCENTRICITY":0.000412,"INCLINATION":43.0005,"RA_OF_ASC_NODE":313.3013,"ARG_OF_PERICENTER":277.8512,"MEAN_ANOMALY":82.1888,"EPHEMERIS_TYPE":0,"CLASSIFICATION_TYPE":"U","NORAD_CAT_ID":64066,"ELEMENT_SET_NO":999,"REV_AT_EPOCH":3229,"BSTAR":0.0028753,"MEAN_MOTION_DOT":0.00389004,"MEAN_MOTION_DDOT":0},{"OBJECT_NAME":"STARLINK-11726 [DTC]","OBJECT_ID":"2025-107D","EPOCH":"2025-12-04T18:00:02.000160","MEAN_MOTION":15.70718792,"ECCENTRICITY":0.0001474,"INCLINATION":43.0006,"RA_OF_ASC_NODE":310.367,"ARG_OF_PERICENTER":265.7403,"MEAN_ANOMALY":250.1267,"EPHEMERIS_TYPE":0,"CLASSIFICATION_TYPE":"U","NORAD_CAT_ID":64067,"ELEMENT_SET_NO":999,"REV_AT_EPOCH":601,"BSTAR":0.0010714,"MEAN_MOTION_DOT":0.00138635,"MEAN_MOTION_DDOT":0},{"OBJECT_NAME":"STARLINK-11700 [DTC]","OBJECT_ID":"2025-107E","EPOCH":"2025-12-04T15:12:08.593056","MEAN_MOTION":15.70917053,"ECCENTRICITY":0.0001216,"INCLINATION":43.0001,"RA_OF_ASC_NODE":311.606,"ARG_OF_PERICENTER":38.0892,"MEAN_ANOMALY":322.0062,"EPHEMERIS_TYPE":0,"CLASSIFICATION_TYPE":"U","NORAD_CAT_ID":64068,"ELEMENT_SET_NO":999,"REV_AT_EPOCH":3234,"BSTAR":0.0032234,"MEAN_MOTION_DOT":0.00437099,"MEAN_MOTION_DDOT":0},{"OBJECT_NAME":"STARLINK-11649 [DTC]","OBJECT_ID":"2025-107F","EPOCH":"2025-12-04T00:18:09.456480","MEAN_MOTION":15.71082687,"ECCENTRICITY":0.00021464,"INCLINATION":42.9992,"RA_OF_ASC_NODE":315.5587,"ARG_OF_PERICENTER":219.9377,"MEAN_ANOMALY":140.1333,"EPHEMERIS_TYPE":0,"CLASSIFICATION_TYPE":"U","NORAD_CAT_ID":64069,"ELEMENT_SET_NO":999,"REV_AT_EPOCH":3224,"BSTAR":0.0027983064,"MEAN_MOTION_DOT":0.00379336,"MEAN_MOTION_DDOT":0}]
