STARLINK-34079          
1 64038U 25102S   25338.47458418  .00010321  00000+0  87095-3 0  9991
2 64038  70.0006 354.3731 0003253 275.8961  84.1827 14.98355855 31796
STARLINK-34089          
1 64039U 25102T   25338.46644334  .00007578  00000+0  64206-3 0  9994
2 64039  70.0008 354.7463 0003105 269.0484  91.0319 14.98340821 31684
STARLINK-34117          
1 64040U 25102U   25338.45391631  .00011267  00000+0  94999-3 0  9996
2 64040  70.0010 354.7004 0003261 270.5711  89.5074 14.98352095 31623
STARLINK-34111          
1 64041U 25102V   25338.30788608  .00013085  00000+0  11017-2 0  9994
2 64041  70.0007 354.9929 0002919 276.1356  83.9470 14.98352304 31445
STARLINK-34049          
1 64042U 25102W   25338.46209185  .00008547  00000+0  72287-3 0  9994
2 64042  70.0008 354.7345 0003102 271.1156  88.9648 14.98348814 31684
STARLINK-34096          
1 64043U 25102X   25338.44540145  .00000346  00000+0  36787-4 0  9992
2 64043  70.0018 354.6754 0003122 271.0608  89.0193 14.98319194 31576
STARLINK-34081          
1 64044U 25102Y   25338.45376455  .00021040  00000+0  17651-2 0  9996
2 64044  70.0009 354.7048 0003203 267.7540  92.3252 14.98345960 31620
STARLINK-34033          
1 64045U 25102Z   25338.42869375  .00007392  00000+0  62665-3 0  9992
2 64045  70.0019 354.6159 0002792 269.8251  90.2588 14.98332280 31617
STARLINK-33952          
1 64046U 25102AA  25338.48710713  .00067437  00000+0  55891-2 0  9998
2 64046  70.0021 354.4196 0002647 279.6332  80.4528 14.98443371 31695
STARLINK-33961          
1 64047U 25102AB  25338.43704953  .00011546  00000+0  97347-3 0  9996
2 64047  70.0025 354.6457 0002683 267.1198  92.9654 14.98345629 31565
STARLINK-11741 [DTC]    
1 64064U 25107A   25338.32520767  .00147730  00000+0  11314-2 0  9991
2 64064  42.9993 313.6018 0001200 280.5004  79.5728 15.70904008 32290
STARLINK-11709 [DTC]    
1 64065U 25107B   25338.62189762  .00557471  00000+0  40371-2 0  9993
2 64065  42.9994 311.5144 0000907 316.6390  43.4406 15.70992742 32342
STARLINK-11737 [DTC]    
1 64066U 25107C   25338.28803778  .00389004  00000+0  28753-2 0  9991
2 64066  43.0005 313.3013 0004120 277.8512  82.1888 15.71004505 32298
STARLINK-11726 [DTC]    
1 64067U 25107D   25338.75002315  .00138635  00000+0  10714-2 0  9992
2 64067  43.0006 310.3670 0001474 265.7403 250.1267 15.70718792  6018
STARLINK-11700 [DTC]    
1 64068U 25107E   25338.63343279  .00437099  00000+0  32234-2 0  9994
2 64068  43.0001 311.6060 0001216  38.0892 322.0062 15.70917053 32346
STARLINK-11649 [DTC]    
1 64069U 25107F   25338.01260945  .00379336  00000+0  27983-2 0  9999
2 64069  42.9992 315.5587 0002146 219.9377 140.1333 15.71082687 32248
